UNKNOWN                 
1 81036U          23206.43469523  .00000345  00000+0  87056-3 0  9997
2 81036  66.0094 334.6571 2656263  23.2251 346.9115  9.18194792322027
UNKNOWN                 
1 81052U          23201.59673982  .00004584  00000+0  14461-2 0  9991
2 81052  65.7782  52.6913 0621852  10.8380 350.5386 13.66241575479890
UNKNOWN                 
1 81069U          23206.38689509  .00003248  00000+0  50114-2 0  9994
2 81069 100.3143  54.8608 0072660  14.2399 346.0760 13.51055482397850
UNKNOWN                 
1 81078U          23205.00936444  .00000177  00000+0  64988-2 0  9997
2 81078  65.1095 199.6961 0193179 199.4444 189.7279 11.22014938396695
UNKNOWN                 
1 81111U          23206.50210077  .00022731  00000+0  36360-2 0  9991
2 81111  62.8559  79.2227 4171530 323.7210  14.1492  7.03575788208222
UNKNOWN                 
1 81123U 70025    23205.49597864  .00000973  00000+0  10067-2 0  9997
2 81123 100.0424 226.7084 0004042 137.9875 222.1585 13.78678566485961
UNKNOWN                 
1 81134U          23205.82974424  .00000243  00000+0  86895-3 0  9996
2 81134  90.2621 344.0005 0026473 147.4014 212.8744 12.92542585349959
UNKNOWN                 
1 81161U          23202.77998644 -.00000853  00000+0 -86431-3 0  9992
2 81161 100.3923 316.7310 0056898 329.0244  30.7550 13.72533161435978
UNKNOWN                 
1 81219U 81053    23206.00683517  .00000485  00000+0  44908-3 0  9995
2 81219  82.9275 300.0548 0023315 149.7652 210.4858 13.80312488487199
UNKNOWN                 
1 81221U          23199.29661379  .00006285  00000+0  27170-2 0  9990
2 81221  98.8929 145.1998 0111253  13.1418 347.2616 14.21447909399347
UNKNOWN                 
1 81228U          23203.23262874  .00006706  00000+0  27967-2 0  9996
2 81228  70.5314  51.7527 0089389 213.8219 145.7186 14.24427489500870
UNKNOWN                 
1 81247U 81053    23205.81724020  .00027122  00000+0  44997-2 0  9993
2 81247  83.2271 232.0857 0023429  43.0725 317.2312 14.69885802509818
UNKNOWN                 
1 81254U 70025    23205.26306866  .00003566  00000+0  26449-2 0  9999
2 81254 100.3678 142.3901 0066351 207.9997 151.7584 13.94880028490974
UNKNOWN                 
1 81264U          23196.93341096  .00015752  00000+0  25618-2 0  9990
2 81264  99.4177 267.9189 0089662 144.0925 216.6347 14.68501351480126
UNKNOWN                 
1 81279U          23204.11055321  .00001158  00000+0  48463-3 0  9998
2 81279  98.1551 322.6152 0219788  54.6098 307.5394 14.15528949338807
UNKNOWN                 
1 81301U          23197.54681851  .00000158  00000+0  23321-3 0  9990
2 81301  66.7575 236.5672 0082681 104.1348  45.4658 13.75818072485234
UNKNOWN                 
1 81311U 90105    23199.23450324  .00000739  00000+0  16763-3 0  9990
2 81311  98.8084 200.2837 0135368 280.1759 141.2903 14.54078046511818
UNKNOWN                 
1 81317U 80089    23205.68667419  .00000108  00000+0  28849-3 0  9996
2 81317  67.1379 295.7149 0219536 282.7979 230.1627 13.37377925471990
UNKNOWN                 
1 81323U          23201.55369112  .00006808  00000+0  13687-2 0  9995
2 81323  65.7745 252.4069 0454559  52.3087 311.8313 14.12838801988188
UNKNOWN                 
1 81329U          23203.68762793  .00001130  00000+0  46050-3 0  9993
2 81329  65.8265 318.4814 0856119  64.0800   3.0189 13.15201540500833
UNKNOWN                 
1 81341U          23206.07312658  .00001972  00000+0  50734-2 0  9991
2 81341  99.5389 252.3654 0428449 324.7345  32.6087 12.90579784410708
UNKNOWN                 
1 81342U          23194.90071720  .00004552  00000+0  24563-2 0  9990
2 81342  70.9009  16.5418 0147412 253.1924 105.2980 14.07799427493040
UNKNOWN                 
1 81343U          23206.25123144  .00004114  00000+0  43302-3 0  9998
2 81343  85.8778 299.3190 0012167 133.0956 227.1289 14.89088532324032
UNKNOWN                 
1 81357U          23206.57236638  .00023791  00000+0  15788-2 0  9999
2 81357  97.4290  70.2444 0149519  80.5222 281.2865 14.98434039405776
UNKNOWN                 
1 81359U          23205.82000698  .00001232  00000+0  12670-2 0  9996
2 81359  66.8011 334.3896 0121761 202.0800 157.5002 13.76278759485389
UNKNOWN                 
1 81366U          23204.76293930  .00002963  00000+0  10858-2 0  9997
2 81366  65.8871 330.8852 0731999 141.3244 224.2641 13.40713447948980
UNKNOWN                 
1 81371U          23205.50027383  .00002603  00000+0  51826-3 0  9995
2 81371  98.8972 224.5480 0083593 176.8060 183.3689 14.60838870514100
UNKNOWN                 
1 81386U          23191.00722815  .00004225  00000+0  18445-2 0  9993
2 81386  71.0550  94.7045 0115581  31.9746 328.8324 14.20885087497649
UNKNOWN                 
1 81390U          23198.93640094  .00000386  00000+0  33196-2 0  9999
2 81390 103.1374  17.2928 0170610 239.6187 118.7907 12.35086598391566
UNKNOWN                 
1 81391U          23204.05965096  .00006239  00000+0  24832-2 0  9993
2 81391  81.2032 105.7315 0011565 110.8126 249.4295 14.28515941456380
UNKNOWN                 
1 81392U          23206.19827892  .00002959  00000+0  33068-2 0  9998
2 81392 100.4308 101.7923 0050680  74.3427  77.3459 13.71577787482259
UNKNOWN                 
1 81402U          23205.34239408  .00012733  00000+0  40956-2 0  9991
2 81402  98.6925 240.7017 0009120 133.3184 226.8765 14.39427093321062
UNKNOWN                 
1 81405U          23199.28890917  .00001967  00000+0  16046-2 0  9997
2 81405  99.5403 222.3495 0168386  42.0838 319.3108 13.84611208440045
UNKNOWN                 
1 81406U          23198.74950431  .00000936  00000+0  41963-3 0  9998
2 81406  65.8132 323.7688 0885439 347.9149  10.1806 13.06644059418598
UNKNOWN                 
1 81409U 87068    23203.02213776  .00012487  00000+0  36081-2 0  9990
2 81409  82.6599 213.9243 0049051 200.0542 159.8726 14.43791558503563
UNKNOWN                 
1 81418U          23205.86336435  .00001517  00000+0  29888-2 0  9992
2 81418 100.2938 356.0253 0059232 215.6089 144.1077 13.36754385282598
UNKNOWN                 
1 81425U          23202.68436876  .00005089  00000+0  57091-2 0  9992
2 81425  99.4663 286.7686 0085481 202.8186 156.9152 13.69828096322058
UNKNOWN                 
1 81427U          23204.68398476  .00000753  00000+0  48428-3 0  9997
2 81427  98.8320 101.5500 0087171 329.7992  29.8167 14.04327328429115
UNKNOWN                 
1 81438U          23204.50480694  .00002225  00000+0  36295-2 0  9998
2 81438 100.3114  34.1728 0056168  45.2431 315.3251 13.48348556473984
UNKNOWN                 
1 81439U          23206.49950996 -.00000136  00000+0 -23518-3 0  9992
2 81439  67.1622  25.2214 0600399  19.6311 342.6781 12.61722784151946
UNKNOWN                 
1 81449U 85042    23206.43883589  .00006394  00000+0  18981-2 0  9996
2 81449  66.8050 230.4027 0032869 101.1954 259.2850 14.43507188506003
UNKNOWN                 
1 81478U          23203.92172663  .00003521  00000+0  15241-2 0  9999
2 81478  99.0080  88.2743 0167202 349.8493  72.3875 14.17766962498682
UNKNOWN                 
1 81488U 75052    23206.39460712  .00000212  00000+0  36959-3 0  9992
2 81488 100.1120  50.5966 0044604 359.6527 121.9256 13.55785884478528
UNKNOWN                 
1 81497U          23206.40768843  .00004339  00000+0  48124-2 0  9991
2 81497 100.3309  14.3330 0032129  77.4074 313.6654 13.72015814 96260
UNKNOWN                 
1 81499U          23205.52356805  .00002280  00000+0  74968-3 0  9995
2 81499  74.0534  38.9084 0001031 307.6342  52.4719 14.38832347356610
UNKNOWN                 
1 81521U          23197.56070490  .00925641  00000+0  16181-1 0  9994
2 81521  99.6626 122.0388 0020605 150.6409  28.5125 15.48004731513150
UNKNOWN                 
1 81535U          23206.52324955  .00002036  00000+0  89924-3 0  9995
2 81535  98.1505 352.9114 0248726 141.8326 220.0754 14.09020877264517
UNKNOWN                 
1 81536U 73086    23206.05344278  .00000394  00000+0  27291-2 0  9991
2 81536 102.0394  44.1839 0023577 120.7284  29.9861 12.54534652442441
UNKNOWN                 
1 81537U 93016    23206.08049695  .00000319  00000+0  21640-3 0  9995
2 81537  71.0404 110.9919 0077781  23.7616 336.7061 14.06032775497895
UNKNOWN                 
1 81546U          23203.17021816  .00434804  00000+0  68925-2 0  9994
2 81546  66.7786 119.3286 0024745 241.1480 118.7197 15.51343542    16
UNKNOWN                 
1 81552U          23204.04530959  .00000659  00000+0  15315-2 0  9993
2 81552  99.0409 243.5456 0263740 312.2768  45.6256 13.16235206464229
UNKNOWN                 
1 81564U          23203.56803516  .00015428  00000+0  55207-2 0  9998
2 81564  81.1781 148.7166 0035993  24.7480 335.5420 14.33578409441217
UNKNOWN                 
1 81569U          23198.66728015  .00000223  00000+0  91580-3 0  9999
2 81569  28.0753 317.8857 0315567  82.8142 280.8133 12.46276302443073
UNKNOWN                 
1 81579U          23206.58590448  .00017510  00000+0  82776-2 0  9991
2 81579 100.0438 249.2151 0182306   8.4623 351.9548 14.11408584489311
UNKNOWN                 
1 81599U          23204.90778075  .00000046  00000+0  19456-3 0  9993
2 81599  67.2989   6.4169 0253829 349.4109  83.8545 13.29736259468952
UNKNOWN                 
1 81605U          23206.24767271  .00001059  00000+0  49370-2 0  9998
2 81605  56.4377 155.9820 0149737  29.5047 331.4226 12.78965173 74610
UNKNOWN                 
1 81614U 76077    23206.47439709  .00003915  00000+0  29691-1 0  9998
2 81614 101.8567 227.4222 0338892 319.5041  38.1241 12.25256249430753
UNKNOWN                 
1 81615U 92021    23206.58620175  .00004162  00000+0  14983-2 0  9991
2 81615  65.8295 279.6946 0812080 177.5529 182.9887 13.26129885467001
UNKNOWN                 
1 81617U 73086    23204.49943504  .00000287  00000+0  19837-2 0  9992
2 81617 101.2762  46.9239 0037431 159.6563 200.6013 12.56584269443382
UNKNOWN                 
1 81624U          23196.99568530  .00002939  00000+0  65830-3 0  9994
2 81624  66.9887  47.8820 0095344 244.9117 114.2079 14.55311679510900
